CCSDS_OMM_VERS = 2.0
CREATION_DATE  = 
ORIGINATOR     = 

OBJECT_NAME    = ASTRO-H (HITOMI)
OBJECT_ID      = 2016-012A
CENTER_NAME    = EARTH
REF_FRAME      = TEME
TIME_SYSTEM    = UTC
MEAN_ELEMENT_THEORY = SGP/SGP4

EPOCH          = 2026-01-04T10:30:55.067904
MEAN_MOTION    = 15.09533007
ECCENTRICITY   = .00095544
INCLINATION    = 31.0013
RA_OF_ASC_NODE = 51.0220
ARG_OF_PERICENTER = 47.2892
MEAN_ANOMALY   = 312.8549

EPHEMERIS_TYPE = 0
CLASSIFICATION_TYPE = U
NORAD_CAT_ID   = 41337
ELEMENT_SET_NO = 999
REV_AT_EPOCH   = 54251
BSTAR          = .27509121E-3
MEAN_MOTION_DOT = .462E-4
MEAN_MOTION_DDOT = 0

CCSDS_OMM_VERS = 2.0
CREATION_DATE  = 
ORIGINATOR     = 

OBJECT_NAME    = HXMT (HUIYAN)
OBJECT_ID      = 2017-034A
CENTER_NAME    = EARTH
REF_FRAME      = TEME
TIME_SYSTEM    = UTC
MEAN_ELEMENT_THEORY = SGP/SGP4

EPOCH          = 2026-01-04T23:26:46.238784
MEAN_MOTION    = 15.16580224
ECCENTRICITY   = .00325622
INCLINATION    = 43.0155
RA_OF_ASC_NODE = 10.6533
ARG_OF_PERICENTER = 194.2499
MEAN_ANOMALY   = 165.7432

EPHEMERIS_TYPE = 0
CLASSIFICATION_TYPE = U
NORAD_CAT_ID   = 42758
ELEMENT_SET_NO = 999
REV_AT_EPOCH   = 47286
BSTAR          = .41335524E-3
MEAN_MOTION_DOT = .8097E-4
MEAN_MOTION_DDOT = 0

CCSDS_OMM_VERS = 2.0
CREATION_DATE  = 
ORIGINATOR     = 

OBJECT_NAME    = CZ-2C R/B
OBJECT_ID      = 2018-054D
CENTER_NAME    = EARTH
REF_FRAME      = TEME
TIME_SYSTEM    = UTC
MEAN_ELEMENT_THEORY = SGP/SGP4

EPOCH          = 2026-01-04T09:39:08.713152
MEAN_MOTION    = 15.79805476
ECCENTRICITY   = .00117084
INCLINATION    = 35.1337
RA_OF_ASC_NODE = 26.6286
ARG_OF_PERICENTER = 11.1398
MEAN_ANOMALY   = 348.9594

EPHEMERIS_TYPE = 0
CLASSIFICATION_TYPE = U
NORAD_CAT_ID   = 43521
ELEMENT_SET_NO = 999
REV_AT_EPOCH   = 41863
BSTAR          = .76203174E-3
MEAN_MOTION_DOT = .149063E-2
MEAN_MOTION_DDOT = 0

CCSDS_OMM_VERS = 2.0
CREATION_DATE  = 
ORIGINATOR     = 

OBJECT_NAME    = SAOCOM 1A
OBJECT_ID      = 2018-076A
CENTER_NAME    = EARTH
REF_FRAME      = TEME
TIME_SYSTEM    = UTC
MEAN_ELEMENT_THEORY = SGP/SGP4

EPOCH          = 2026-01-05T02:21:13.450176
MEAN_MOTION    = 14.82166434
ECCENTRICITY   = .0001247
INCLINATION    = 97.8859
RA_OF_ASC_NODE = 194.1809
ARG_OF_PERICENTER = 84.3478
MEAN_ANOMALY   = 275.7878

EPHEMERIS_TYPE = 0
CLASSIFICATION_TYPE = U
NORAD_CAT_ID   = 43641
ELEMENT_SET_NO = 999
REV_AT_EPOCH   = 39194
BSTAR          = .17332E-3
MEAN_MOTION_DOT = .1328E-4
MEAN_MOTION_DDOT = 0

CCSDS_OMM_VERS = 2.0
CREATION_DATE  = 
ORIGINATOR     = 

OBJECT_NAME    = H-2A R/B
OBJECT_ID      = 2018-084L
CENTER_NAME    = EARTH
REF_FRAME      = TEME
TIME_SYSTEM    = UTC
MEAN_ELEMENT_THEORY = SGP/SGP4

EPOCH          = 2026-01-04T12:45:00.810432
MEAN_MOTION    = 15.38394378
ECCENTRICITY   = .00259301
INCLINATION    = 98.8757
RA_OF_ASC_NODE = 208.3522
ARG_OF_PERICENTER = 246.1755
MEAN_ANOMALY   = 113.6767

EPHEMERIS_TYPE = 0
CLASSIFICATION_TYPE = U
NORAD_CAT_ID   = 43682
ELEMENT_SET_NO = 999
REV_AT_EPOCH   = 39590
BSTAR          = .62339377E-3
MEAN_MOTION_DOT = .23813E-3
MEAN_MOTION_DDOT = 0

CCSDS_OMM_VERS = 2.0
CREATION_DATE  = 
ORIGINATOR     = 

OBJECT_NAME    = SAOCOM 1B
OBJECT_ID      = 2020-059A
CENTER_NAME    = EARTH
REF_FRAME      = TEME
TIME_SYSTEM    = UTC
MEAN_ELEMENT_THEORY = SGP/SGP4

EPOCH          = 2026-01-04T23:51:45.056736
MEAN_MOTION    = 14.82170178
ECCENTRICITY   = .00014339
INCLINATION    = 97.8836
RA_OF_ASC_NODE = 193.1771
ARG_OF_PERICENTER = 84.0406
MEAN_ANOMALY   = 276.0970

EPHEMERIS_TYPE = 0
CLASSIFICATION_TYPE = U
NORAD_CAT_ID   = 46265
ELEMENT_SET_NO = 999
REV_AT_EPOCH   = 28931
BSTAR          = .11789431E-3
MEAN_MOTION_DOT = .887E-5
MEAN_MOTION_DDOT = 0

CCSDS_OMM_VERS = 2.0
CREATION_DATE  = 
ORIGINATOR     = 

OBJECT_NAME    = CSS (TIANHE)
OBJECT_ID      = 2021-035A
CENTER_NAME    = EARTH
REF_FRAME      = TEME
TIME_SYSTEM    = UTC
MEAN_ELEMENT_THEORY = SGP/SGP4

EPOCH          = 2026-01-04T23:00:27.190656
MEAN_MOTION    = 15.60180608
ECCENTRICITY   = .00107175
INCLINATION    = 41.4651
RA_OF_ASC_NODE = 235.6438
ARG_OF_PERICENTER = 221.5522
MEAN_ANOMALY   = 138.4503

EPHEMERIS_TYPE = 0
CLASSIFICATION_TYPE = U
NORAD_CAT_ID   = 48274
ELEMENT_SET_NO = 999
REV_AT_EPOCH   = 26765
BSTAR          = .17783547E-3
MEAN_MOTION_DOT = .14618E-3
MEAN_MOTION_DDOT = 0

CCSDS_OMM_VERS = 2.0
CREATION_DATE  = 
ORIGINATOR     = 

OBJECT_NAME    = COSMOS 2550
OBJECT_ID      = 2021-056A
CENTER_NAME    = EARTH
REF_FRAME      = TEME
TIME_SYSTEM    = UTC
MEAN_ELEMENT_THEORY = SGP/SGP4

EPOCH          = 2026-01-04T10:02:19.849920
MEAN_MOTION    = 15.33830382
ECCENTRICITY   = .00084602
INCLINATION    = 67.1441
RA_OF_ASC_NODE = 235.3376
ARG_OF_PERICENTER = 269.5365
MEAN_ANOMALY   = 90.4820

EPHEMERIS_TYPE = 0
CLASSIFICATION_TYPE = U
NORAD_CAT_ID   = 48865
ELEMENT_SET_NO = 999
REV_AT_EPOCH   = 25360
BSTAR          = .750358E-6
MEAN_MOTION_DOT = -.167E-5
MEAN_MOTION_DDOT = 0

CCSDS_OMM_VERS = 2.0
CREATION_DATE  = 
ORIGINATOR     = 

OBJECT_NAME    = CZ-2C R/B
OBJECT_ID      = 2022-058K
CENTER_NAME    = EARTH
REF_FRAME      = TEME
TIME_SYSTEM    = UTC
MEAN_ELEMENT_THEORY = SGP/SGP4

EPOCH          = 2026-01-04T23:08:06.509472
MEAN_MOTION    = 15.49947713
ECCENTRICITY   = .00436975
INCLINATION    = 50.1910
RA_OF_ASC_NODE = 284.9993
ARG_OF_PERICENTER = 293.6147
MEAN_ANOMALY   = 66.0237

EPHEMERIS_TYPE = 0
CLASSIFICATION_TYPE = U
NORAD_CAT_ID   = 52794
ELEMENT_SET_NO = 999
REV_AT_EPOCH   = 20023
BSTAR          = .51612854E-3
MEAN_MOTION_DOT = .30246E-3
MEAN_MOTION_DDOT = 0

CCSDS_OMM_VERS = 2.0
CREATION_DATE  = 
ORIGINATOR     = 

OBJECT_NAME    = CZ-2C R/B
OBJECT_ID      = 2022-132E
CENTER_NAME    = EARTH
REF_FRAME      = TEME
TIME_SYSTEM    = UTC
MEAN_ELEMENT_THEORY = SGP/SGP4

EPOCH          = 2026-01-04T22:58:47.380512
MEAN_MOTION    = 15.56500051
ECCENTRICITY   = .00185936
INCLINATION    = 97.2939
RA_OF_ASC_NODE = 6.6256
ARG_OF_PERICENTER = 334.6047
MEAN_ANOMALY   = 25.4292

EPHEMERIS_TYPE = 0
CLASSIFICATION_TYPE = U
NORAD_CAT_ID   = 54039
ELEMENT_SET_NO = 999
REV_AT_EPOCH   = 18044
BSTAR          = .56095891E-3
MEAN_MOTION_DOT = .40077E-3
MEAN_MOTION_DDOT = 0

CCSDS_OMM_VERS = 2.0
CREATION_DATE  = 
ORIGINATOR     = 

OBJECT_NAME    = GSLV R/B
OBJECT_ID      = 2022-138AN
CENTER_NAME    = EARTH
REF_FRAME      = TEME
TIME_SYSTEM    = UTC
MEAN_ELEMENT_THEORY = SGP/SGP4

EPOCH          = 2026-01-04T22:18:55.429344
MEAN_MOTION    = 14.96281134
ECCENTRICITY   = .0022818
INCLINATION    = 87.3821
RA_OF_ASC_NODE = 187.7066
ARG_OF_PERICENTER = 28.9557
MEAN_ANOMALY   = 331.2934

EPHEMERIS_TYPE = 0
CLASSIFICATION_TYPE = U
NORAD_CAT_ID   = 54149
ELEMENT_SET_NO = 999
REV_AT_EPOCH   = 17439
BSTAR          = .28584079E-3
MEAN_MOTION_DOT = .3272E-4
MEAN_MOTION_DDOT = 0

CCSDS_OMM_VERS = 2.0
CREATION_DATE  = 
ORIGINATOR     = 

OBJECT_NAME    = XRISM
OBJECT_ID      = 2023-137A
CENTER_NAME    = EARTH
REF_FRAME      = TEME
TIME_SYSTEM    = UTC
MEAN_ELEMENT_THEORY = SGP/SGP4

EPOCH          = 2026-01-04T05:40:07.922784
MEAN_MOTION    = 15.10643890
ECCENTRICITY   = .0007655
INCLINATION    = 31.0036
RA_OF_ASC_NODE = 340.2729
ARG_OF_PERICENTER = 113.9336
MEAN_ANOMALY   = 246.2105

EPHEMERIS_TYPE = 0
CLASSIFICATION_TYPE = U
NORAD_CAT_ID   = 57800
ELEMENT_SET_NO = 999
REV_AT_EPOCH   = 12803
BSTAR          = .51354E-3
MEAN_MOTION_DOT = .8808E-4
MEAN_MOTION_DDOT = 0

CCSDS_OMM_VERS = 2.0
CREATION_DATE  = 
ORIGINATOR     = 

OBJECT_NAME    = ACS3
OBJECT_ID      = 2024-077B
CENTER_NAME    = EARTH
REF_FRAME      = TEME
TIME_SYSTEM    = UTC
MEAN_ELEMENT_THEORY = SGP/SGP4

EPOCH          = 2026-01-04T20:29:33.228384
MEAN_MOTION    = 13.86776138
ECCENTRICITY   = .00681019
INCLINATION    = 97.2506
RA_OF_ASC_NODE = 320.2944
ARG_OF_PERICENTER = 280.4418
MEAN_ANOMALY   = 78.9075

EPHEMERIS_TYPE = 0
CLASSIFICATION_TYPE = U
NORAD_CAT_ID   = 59588
ELEMENT_SET_NO = 999
REV_AT_EPOCH   = 8534
BSTAR          = .22744989E-1
MEAN_MOTION_DOT = .27064E-3
MEAN_MOTION_DDOT = 0

CCSDS_OMM_VERS = 2.0
CREATION_DATE  = 
ORIGINATOR     = 

OBJECT_NAME    = SZ-21 MODULE
OBJECT_ID      = 2025-246C
CENTER_NAME    = EARTH
REF_FRAME      = TEME
TIME_SYSTEM    = UTC
MEAN_ELEMENT_THEORY = SGP/SGP4

EPOCH          = 2026-01-04T22:09:26.387712
MEAN_MOTION    = 15.63931215
ECCENTRICITY   = .00018644
INCLINATION    = 41.4747
RA_OF_ASC_NODE = 234.4845
ARG_OF_PERICENTER = 44.4258
MEAN_ANOMALY   = 315.6731

EPHEMERIS_TYPE = 0
CLASSIFICATION_TYPE = U
NORAD_CAT_ID   = 66515
ELEMENT_SET_NO = 999
REV_AT_EPOCH   = 807
BSTAR          = .32708311E-3
MEAN_MOTION_DOT = .31475E-3
MEAN_MOTION_DDOT = 0

